$$SOE
2460147.500000000, A.D. 2023-Jul-22 00:00:00.0000, 3.638572423510919E+08, -3.795638555223223E+08, -5.741317305618043E+07,
2460154.500000000, A.D. 2023-Jul-29 00:00:00.0000, 3.700354115346887E+08, -3.722211852260035E+08, -5.758909535645424E+07,
2460161.500000000, A.D. 2023-Aug-05 00:00:00.0000, 3.760915059666386E+08, -3.647557321834937E+08, -5.774602013704896E+07,
2460168.500000000, A.D. 2023-Aug-12 00:00:00.0000, 3.820228789309267E+08, -3.571693320831464E+08, -5.788379611345670E+07,
2460175.500000000, A.D. 2023-Aug-19 00:00:00.0000, 3.878268996603822E+08, -3.494638823274826E+08, -5.800227710588206E+07,
2460182.500000000, A.D. 2023-Aug-26 00:00:00.0000, 3.935009547996879E+08, -3.416413423981204E+08, -5.810132220214579E+07,
2460189.500000000, A.D. 2023-Sep-02 00:00:00.0000, 3.990424498844495E+08, -3.337037342591103E+08, -5.818079592689054E+07,
2460196.500000000, A.D. 2023-Sep-09 00:00:00.0000, 4.044488108735524E+08, -3.256531428373209E+08, -5.824056842373239E+07,
2460203.500000000, A.D. 2023-Sep-16 00:00:00.0000, 4.097174859038311E+08, -3.174917166357198E+08, -5.828051567052351E+07,
2460210.500000000, A.D. 2023-Sep-23 00:00:00.0000, 4.148459476840808E+08, -3.092216681908759E+08, -5.830051974246383E+07,
2460217.500000000, A.D. 2023-Sep-30 00:00:00.0000, 4.198316961895795E+08, -3.008452731826929E+08, -5.830046899457109E+07,
2460224.500000000, A.D. 2023-Oct-07 00:00:00.0000, 4.246722593033320E+08, -2.923648687385087E+08, -5.828025799184939E+07,
2460231.500000000, A.D. 2023-Oct-14 00:00:00.0000, 4.293651924422527E+08, -2.837828542430615E+08, -5.823978755290173E+07,
2460238.500000000, A.D. 2023-Oct-21 00:00:00.0000, 4.339080803950375E+08, -2.751016930485401E+08, -5.817896507159190E+07,
2460245.500000000, A.D. 2023-Oct-28 00:00:00.0000, 4.382985399464450E+08, -2.663239128217351E+08, -5.809770480088834E+07,
2460252.500000000, A.D. 2023-Nov-04 00:00:00.0000, 4.425342220371001E+08, -2.574521052962686E+08, -5.799592804668877E+07,
2460259.500000000, A.D. 2023-Nov-11 00:00:00.0000, 4.466128136352196E+08, -2.484889260273377E+08, -5.787356333639726E+07,
2460266.500000000, A.D. 2023-Nov-18 00:00:00.0000, 4.505320395384351E+08, -2.394370942107579E+08, -5.773054658709967E+07,
2460273.500000000, A.D. 2023-Nov-25 00:00:00.0000, 4.542896641771217E+08, -2.302993925412546E+08, -5.756682127765362E+07,
2460280.500000000, A.D. 2023-Dec-02 00:00:00.0000, 4.578834934458280E+08, -2.210786671188131E+08, -5.738233862771754E+07,
2460287.500000000, A.D. 2023-Dec-09 00:00:00.0000, 4.613113766386408E+08, -2.117778274596358E+08, -5.717705779522912E+07,
2460294.500000000, A.D. 2023-Dec-16 00:00:00.0000, 4.645712087735733E+08, -2.023998465964608E+08, -5.695094611724818E+07,
2460301.500000000, A.D. 2023-Dec-23 00:00:00.0000, 4.676609336522270E+08, -1.929477605776783E+08, -5.670397936957708E+07,
2460308.500000000, A.D. 2023-Dec-30 00:00:00.0000, 4.705785463133953E+08, -1.834246663134533E+08, -5.643614183632033E+07,
2460315.500000000, A.D. 2024-Jan-06 00:00:00.0000, 4.733220931066927E+08, -1.738337201282772E+08, -5.614742621969841E+07,
2460322.500000000, A.D. 2024-Jan-13 00:00:00.0000, 4.758896725555462E+08, -1.641781388250349E+08, -5.583783382860551E+07,
2460329.500000000, A.D. 2024-Jan-20 00:00:00.0000, 4.782794382296239E+08, -1.544612001731379E+08, -5.550737490580195E+07,
2460336.500000000, A.D. 2024-Jan-27 00:00:00.0000, 4.804896015954072E+08, -1.446862421660649E+08, -5.515606885420901E+07,
2460343.500000000, A.D. 2024-Feb-03 00:00:00.0000, 4.825184344139292E+08, -1.348566619949684E+08, -5.478394440040533E+07,
2460350.500000000, A.D. 2024-Feb-10 00:00:00.0000, 4.843642709600739E+08, -1.249759150276084E+08, -5.439103974437701E+07,
2460357.500000000, A.D. 2024-Feb-17 00:00:00.0000, 4.860255101989731E+08, -1.150475137828800E+08, -5.397740270736585E+07,
2460364.500000000, A.D. 2024-Feb-24 00:00:00.0000, 4.875006179521869E+08, -1.050750268844463E+08, -5.354309087964221E+07,
2460371.500000000, A.D. 2024-Mar-02 00:00:00.0000, 4.887881290796787E+08, -9.506207802453694E+07, -5.308817177326304E+07,
2460378.500000000, A.D. 2024-Mar-09 00:00:00.0000, 4.898866498126737E+08, -8.501234499959990E+07, -5.261272299735805E+07,
2460385.500000000, A.D. 2024-Mar-16 00:00:00.0000, 4.907948606282882E+08, -7.492955861930910E+07, -5.211683247565188E+07,
2460392.500000000, A.D. 2024-Mar-23 00:00:00.0000, 4.915115195580726E+08, -6.481750037806929E+07, -5.160059860559881E+07,
2460399.500000000, A.D. 2024-Mar-30 00:00:00.0000, 4.920354636867168E+08, -5.467999891462523E+07, -5.106413015543458E+07,
2460406.500000000, A.D. 2024-Apr-06 00:00:00.0000, 4.923656090939074E+08, -4.452092862813018E+07, -5.050754619759773E+07,
2460413.500000000, A.D. 2024-Apr-13 00:00:00.0000, 4.925009527845874E+08, -3.434420961488125E+07, -4.993097633532000E+07,
2460420.500000000, A.D. 2024-Apr-20 00:00:00.0000, 4.924405756490949E+08, -2.415380624864655E+07, -4.933456091557128E+07,
2460427.500000000, A.D. 2024-Apr-27 00:00:00.0000, 4.921836449304444E+08, -1.395372496545164E+07, -4.871845113439910E+07,
2460434.500000000, A.D. 2024-May-04 00:00:00.0000, 4.917294162812071E+08, -3.748011955549829E+06, -4.808280909957034E+07,
2460441.500000000, A.D. 2024-May-11 00:00:00.0000, 4.910772356435135E+08, 6.459249136440689E+06, -4.742780788014933E+07,
2460448.500000000, A.D. 2024-May-18 00:00:00.0000, 4.902265410302038E+08, 1.666393952529668E+07, -4.675363154832522E+07,
2460455.500000000, A.D. 2024-May-25 00:00:00.0000, 4.891768642283686E+08, 2.686190760533314E+07, -4.606047521594287E+07,
2460462.500000000, A.D. 2024-Jun-01 00:00:00.0000, 4.879278324815260E+08, 3.704897121816543E+07, -4.534854507548560E+07,
2460469.500000000, A.D. 2024-Jun-08 00:00:00.0000, 4.864791703924052E+08, 4.722091984296577E+07, -4.461805846945058E+07,
2460476.500000000, A.D. 2024-Jun-15 00:00:00.0000, 4.848307024400010E+08, 5.737351725190210E+07, -4.386924397950394E+07,
2460483.500000000, A.D. 2024-Jun-22 00:00:00.0000, 4.829823550994166E+08, 6.750250580453366E+07, -4.310234134632714E+07,
2460490.500000000, A.D. 2024-Jun-29 00:00:00.0000, 4.809341564390107E+08, 7.760361055911684E+07, -4.231760117376352E+07,
2460497.500000000, A.D. 2024-Jul-06 00:00:00.0000, 4.786862358361422E+08, 8.767254072633709E+07, -4.151528486145771E+07,
2460504.500000000, A.D. 2024-Jul-13 00:00:00.0000, 4.762388257546147E+08, 9.770499128595975E+07, -4.069566471345039E+07,
2460511.500000000, A.D. 2024-Jul-20 00:00:00.0000, 4.735922635923983E+08, 1.076966459123077E+08, -3.985902394622239E+07,
2460518.500000000, A.D. 2024-Jul-27 00:00:00.0000, 4.707469929390473E+08, 1.176431802460021E+08, -3.900565661415474E+07,
2460525.500000000, A.D. 2024-Aug-03 00:00:00.0000, 4.677035645114310E+08, 1.275402651334083E+08, -3.813586750795284E+07,
2460532.500000000, A.D. 2024-Aug-10 00:00:00.0000, 4.644626369292990E+08, 1.373835698254578E+08, -3.724997204158265E+07,
2460539.500000000, A.D. 2024-Aug-17 00:00:00.0000, 4.610249773739245E+08, 1.471687651535419E+08, -3.634829613034602E+07,
2460546.500000000, A.D. 2024-Aug-24 00:00:00.0000, 4.573914621538737E+08, 1.568915266560306E+08, -3.543117606461740E+07,
2460553.500000000, A.D. 2024-Aug-31 00:00:00.0000, 4.535630772901884E+08, 1.665475375894426E+08, -3.449895839510550E+07,
2460560.500000000, A.D. 2024-Sep-07 00:00:00.0000, 4.495409194833875E+08, 1.761324919454171E+08, -3.355199985314761E+07,
2460567.500000000, A.D. 2024-Sep-14 00:00:00.0000, 4.453261975435559E+08, 1.856420984633459E+08, -3.259066723270182E+07,
2460574.500000000, A.D. 2024-Sep-21 00:00:00.0000, 4.409202322503538E+08, 1.950720860462309E+08, -3.161533701429258E+07,
2460581.500000000, A.D. 2024-Sep-28 00:00:00.0000, 4.363244541542798E+08, 2.044182073478029E+08, -3.062639495026743E+07,
2460588.500000000, A.D. 2024-Oct-05 00:00:00.0000, 4.315404029882510E+08, 2.136762405256926E+08, -2.962423594830758E+07,
2460595.500000000, A.D. 2024-Oct-12 00:00:00.0000, 4.265697283257678E+08, 2.228419921331803E+08, -2.860926397675906E+07,
2460602.500000000, A.D. 2024-Oct-19 00:00:00.0000, 4.214141897319293E+08, 2.319113008721250E+08, -2.758189185340864E+07,
2460609.500000000, A.D. 2024-Oct-26 00:00:00.0000, 4.160756563731685E+08, 2.408800413992380E+08, -2.654254098040573E+07,
2460616.500000000, A.D. 2024-Nov-02 00:00:00.0000, 4.105561063417329E+08, 2.497441280308529E+08, -2.549164106130011E+07,
2460623.500000000, A.D. 2024-Nov-09 00:00:00.0000, 4.048576257906176E+08, 2.584995183606065E+08, -2.442962980766197E+07,
2460630.500000000, A.D. 2024-Nov-16 00:00:00.0000, 3.989824079046112E+08, 2.671422167842628E+08, -2.335695263800970E+07,
2460637.500000000, A.D. 2024-Nov-23 00:00:00.0000, 3.929327517550038E+08, 2.756682778759401E+08, -2.227406237786941E+07,
2460644.500000000, A.D. 2024-Nov-30 00:00:00.0000, 3.867110612479396E+08, 2.840738095672079E+08, -2.118141898406981E+07,
2460651.500000000, A.D. 2024-Dec-07 00:00:00.0000, 3.803198445884264E+08, 2.923549765429647E+08, -2.007948929795170E+07,
2460658.500000000, A.D. 2024-Dec-14 00:00:00.0000, 3.737617135731136E+08, 3.005080050697433E+08, -1.896874666479142E+07,
2460665.500000000, A.D. 2024-Dec-21 00:00:00.0000, 3.670393803937690E+08, 3.085291880080970E+08, -1.784967030838296E+07,
2460672.500000000, A.D. 2024-Dec-28 00:00:00.0000, 3.601556539270026E+08, 3.164148870357293E+08, -1.672274488458723E+07,
2460679.500000000, A.D. 2025-Jan-04 00:00:00.0000, 3.531134381107337E+08, 3.241615344493371E+08, -1.558846025846542E+07,
2460686.500000000, A.D. 2025-Jan-11 00:00:00.0000, 3.459157305869494E+08, 3.317656361968293E+08, -1.444731120264716E+07,
2460693.500000000, A.D. 2025-Jan-18 00:00:00.0000, 3.385656206955062E+08, 3.392237752152995E+08, -1.329979700822845E+07,
2460700.500000000, A.D. 2025-Jan-25 00:00:00.0000, 3.310662870662530E+08, 3.465326145955040E+08, -1.214642106975888E+07,
2460707.500000000, A.D. 2025-Feb-01 00:00:00.0000, 3.234209950042082E+08, 3.536889005379413E+08, -1.098769046468815E+07,
2460714.500000000, A.D. 2025-Feb-08 00:00:00.0000, 3.156330937320005E+08, 3.606894651149055E+08, -9.824115531599313E+06,
$$EOE